NORAD_CAT_ID,OBJECT_NAME,OBJECT_TYPE,EPOCH,MEAN_MOTION,ECCENTRICITY,INCLINATION,RA_OF_ASC_NODE,ARG_OF_PERICENTER,MEAN_ANOMALY,BSTAR,MEAN_MOTION_DOT,MEAN_MOTION_DDOT,TLE_LINE0,TLE_LINE1,TLE_LINE2,SEMIMAJOR_AXIS,PERIOD,APOGEE,PERIGEE,DECAYED
52358.0,STARLINK-3837,PAYLOAD,2023-06-16 19:35:29,15.08848481,0.0001066,53.219,354.2582,81.3341,278.7771,0.00018662,2.684e-05,0.0,0 STARLINK-3837,1 52358U 22045AD  23167.81631681  .00002684  00000-0  18662-3 0  9995,2 52358  53.2190 354.2582 0001066  81.3341 278.7771 15.08848481 65295,6917.854,95.437,540.457,538.982,0.0
52358.0,STARLINK-3837,PAYLOAD,2023-06-16 22:46:15,15.08853962,0.0001019,53.2186,353.6616,83.7351,276.3757,0.00019459,2.812e-05,0.0,0 STARLINK-3837,1 52358U 22045AD  23167.94879263  .00002812  00000-0  19459-3 0  9997,2 52358  53.2186 353.6616 0001019  83.7351 276.3757 15.08853962 65317,6917.838,95.437,540.408,538.998,0.0
52358.0,STARLINK-3837,PAYLOAD,2023-06-17 05:07:49,15.0883155,0.0001108,53.2189,352.4719,88.7845,271.3274,1.0739e-05,-1.17e-06,0.0,0 STARLINK-3837,1 52358U 22045AD  23168.21377302 -.00000117  00000-0  10739-4 0  9995,2 52358  53.2189 352.4719 0001108  88.7845 271.3274 15.08831550 65355,6917.906,95.438,540.538,539.005,0.0
52358.0,STARLINK-3837,PAYLOAD,2023-06-17 11:29:23,15.08827427,0.0001627,53.2185,351.2821,82.3378,277.7799,-1.4847e-05,-5.24e-06,0.0,0 STARLINK-3837,1 52358U 22045AD  23168.47873996 -.00000524  00000-0 -14847-4 0  9990,2 52358  53.2185 351.2821 0001627  82.3378 277.7799 15.08827427 65393,6917.919,95.438,540.909,538.658,0.0
52358.0,STARLINK-3837,PAYLOAD,2023-06-17 14:40:09,15.0882137,0.0001074,53.2189,350.6886,94.2462,265.8653,-0.00013106,-2.372e-05,0.0,0 STARLINK-3837,1 52358U 22045AD  23168.61122648 -.00002372  00000-0 -13106-3 0  9996,2 52358  53.2189 350.6886 0001074  94.2462 265.8653 15.08821370 65414,6917.937,95.439,540.545,539.059,0.0
52358.0,STARLINK-3837,PAYLOAD,2023-06-17 19:26:19,15.0882227,9.14e-05,53.2191,349.7982,108.5184,251.5907,-0.00011286,-2.082e-05,0.0,0 STARLINK-3837,1 52358U 22045AD  23168.80994658 -.00002082  00000-0 -11286-3 0  9990,2 52358  53.2191 349.7982 0000914 108.5184 251.5907 15.08822270 65442,6917.935,95.439,540.432,539.167,0.0
52358.0,STARLINK-3837,PAYLOAD,2023-06-18 04:58:37,15.08833977,0.0001023,53.219,348.0131,100.7546,259.3561,-5.8509e-06,-3.81e-06,0.0,0 STARLINK-3837,1 52358U 22045AD  23169.20737914 -.00000381  00000-0 -58509-5 0  9996,2 52358  53.2190 348.0131 0001023 100.7546 259.3561 15.08833977 65502,6917.899,95.438,540.471,539.056,0.0
52358.0,STARLINK-3837,PAYLOAD,2023-06-18 17:41:41,15.08849933,9.77e-05,53.2188,345.6336,104.5961,255.5139,5.6877e-05,6.18e-06,0.0,0 STARLINK-3837,1 52358U 22045AD  23169.73728880  .00000618  00000-0  56877-4 0  9992,2 52358  53.2188 345.6336 0000977 104.5961 255.5139 15.08849933 65585,6917.85,95.437,540.391,539.039,0.0
52358.0,STARLINK-3837,PAYLOAD,2023-06-19 11:10:56,15.088384,9.49e-05,53.2177,342.363,96.0924,264.0176,0.00031972,4.804e-05,0.0,0 STARLINK-3837,1 52358U 22045AD  23170.46593740  .00004804  00000-0  31972-3 0  9998,2 52358  53.2177 342.3630 0000949  96.0924 264.0176 15.08838400 65692,6917.885,95.438,540.407,539.094,0.0
52358.0,STARLINK-3837,PAYLOAD,2023-06-19 17:32:29,15.08844522,9.15e-05,53.2173,341.1727,110.499,249.6101,0.00036158,5.472e-05,0.0,0 STARLINK-3837,1 52358U 22045AD  23170.73089568  .00005472  00000-0  36158-3 0  9999,2 52358  53.2173 341.1727 0000915 110.4990 249.6101 15.08844522 65733,6917.867,95.437,540.365,539.099,0.0
52358.0,STARLINK-3837,PAYLOAD,2023-06-20 11:01:43,15.08841248,9.21e-05,53.2183,337.9007,95.0405,265.0692,7.4814e-05,9.03e-06,0.0,0 STARLINK-3837,1 52358U 22045AD  23171.45953566  .00000903  00000-0  74814-4 0  9993,2 52358  53.2183 337.9007 0000921  95.0405 265.0692 15.08841248 65845,6917.877,95.437,540.379,539.104,0.0
52358.0,STARLINK-3837,PAYLOAD,2023-06-20 17:23:16,15.08845926,8.52e-05,53.2178,336.7112,98.3965,261.7124,0.00013624,1.882e-05,0.0,0 STARLINK-3837,1 52358U 22045AD  23171.72449404  .00001882  00000-0  13624-3 0  9992,2 52358  53.2178 336.7112 0000852  98.3965 261.7124 15.08845926 65887,6917.862,95.437,540.317,539.138,0.0
52358.0,STARLINK-3837,PAYLOAD,2023-06-20 20:34:02,15.08848286,8.71e-05,53.2179,336.1161,100.0254,260.0837,0.00019038,2.744e-05,0.0,0 STARLINK-3837,1 52358U 22045AD  23171.85697294  .00002744  00000-0  19038-3 0  9991,2 52358  53.2179 336.1161 0000871 100.0254 260.0837 15.08848286 65907,6917.855,95.437,540.323,539.118,0.0
52358.0,STARLINK-3837,PAYLOAD,2023-06-21 17:14:03,15.08847322,9.01e-05,53.2181,332.2502,88.3864,271.7232,0.00018811,2.708e-05,0.0,0 STARLINK-3837,1 52358U 22045AD  23172.71809337  .00002708  00000-0  18811-3 0  9998,2 52358  53.2181 332.2502 0000901  88.3864 271.7232 15.08847322 66038,6917.858,95.437,540.346,539.1,0.0
52358.0,STARLINK-3837,PAYLOAD,2023-06-22 10:43:18,15.08839636,0.0001045,53.2181,328.9796,87.8275,272.2837,9.6859e-05,1.254e-05,0.0,0 STARLINK-3837,1 52358U 22045AD  23173.44673732  .00001254  00000-0  96859-4 0  9991,2 52358  53.2181 328.9796 0001045  87.8275 272.2837 15.08839636 66143,6917.882,95.438,540.469,539.024,0.0
52358.0,STARLINK-3837,PAYLOAD,2023-06-23 16:55:37,15.08848134,8.76e-05,53.2181,323.3329,88.7435,271.3657,0.00011648,1.567e-05,0.0,0 STARLINK-3837,1 52358U 22045AD  23174.70529245  .00001567  00000-0  11648-3 0  9999,2 52358  53.2181 323.3329 0000876  88.7435 271.3657 15.08848134 66337,6917.856,95.437,540.327,539.115,0.0
52358.0,STARLINK-3837,PAYLOAD,2023-06-24 16:46:24,15.08844862,0.0001038,53.2185,318.8733,97.0881,263.0229,0.00016716,2.374e-05,0.0,0 STARLINK-3837,1 52358U 22045AD  23175.69889513  .00002374  00000-0  16716-3 0  9993,2 52358  53.2185 318.8733 0001038  97.0881 263.0229 15.08844862 66481,6917.866,95.437,540.449,539.012,0.0
52358.0,STARLINK-3837,PAYLOAD,2023-06-25 02:18:43,15.08837271,0.0001057,53.2175,317.0895,99.4353,260.6758,0.00016909,2.404e-05,0.0,0 STARLINK-3837,1 52358U 22045AD  23176.09633849  .00002404  00000-0  16909-3 0  9995,2 52358  53.2175 317.0895 0001057  99.4353 260.6758 15.08837271 66544,6917.889,95.438,540.485,539.023,0.0
52358.0,STARLINK-3837,PAYLOAD,2023-06-26 08:31:03,15.08839245,0.0001505,53.2173,311.4408,82.1363,277.9799,0.00012747,1.741e-05,0.0,0 STARLINK-3837,1 52358U 22045AD  23177.35490139  .00001741  00000-0  12747-3 0  9997,2 52358  53.2173 311.4408 0001505  82.1363 277.9799 15.08839245 66738,6917.883,95.438,540.789,538.707,0.0
52358.0,STARLINK-3837,PAYLOAD,2023-06-26 18:03:22,15.08836364,9.92e-05,53.2177,309.6546,81.546,278.5645,5.3532e-05,5.64e-06,0.0,0 STARLINK-3837,1 52358U 22045AD  23177.75234347  .00000564  00000-0  53532-4 0  9998,2 52358  53.2177 309.6546 0000992  81.5460 278.5645 15.08836364 66796,6917.892,95.438,540.443,539.07,0.0
52358.0,STARLINK-3837,PAYLOAD,2023-06-28 01:51:05,15.08843216,9.62e-05,53.2174,303.7065,78.2558,281.8542,0.00020443,2.968e-05,0.0,0 STARLINK-3837,1 52358U 22045AD  23179.07714399  .00002968  00000-0  20443-3 0  9999,2 52358  53.2174 303.7065 0000962  78.2558 281.8542 15.08843216 66991,6917.871,95.437,540.401,539.07,0.0
52358.0,STARLINK-3837,PAYLOAD,2023-06-29 11:14:11,15.08835645,0.0001452,53.2176,297.4551,133.9143,226.1969,0.00025586,3.786e-05,0.0,0 STARLINK-3837,1 52358U 22045AD  23180.46818288  .00003786  00000-0  25586-3 0  9998,2 52358  53.2176 297.4551 0001452 133.9143 226.1969 15.08835645 67203,6917.894,95.438,540.763,538.754,0.0
52358.0,STARLINK-3837,PAYLOAD,2023-06-30 14:15:43,15.08849236,7.59e-05,53.2173,292.4069,87.6026,272.5053,0.00020146,2.921e-05,0.0,0 STARLINK-3837,1 52358U 22045AD  23181.59425763  .00002921  00000-0  20146-3 0  9992,2 52358  53.2173 292.4069 0000759  87.6026 272.5053 15.08849236 67371,6917.852,95.437,540.242,539.192,0.0
52358.0,STARLINK-3837,PAYLOAD,2023-06-30 23:48:03,15.08836477,0.0001412,53.2182,290.6209,74.5704,285.5444,-7.224e-05,-1.437e-05,0.0,0 STARLINK-3837,1 52358U 22045AD  23181.99170349 -.00001437  00000-0 -72240-4 0  9999,2 52358  53.2182 290.6209 0001412  74.5704 285.5444 15.08836477 67430,6917.891,95.438,540.733,538.779,0.0
52358.0,STARLINK-3837,PAYLOAD,2023-07-02 10:46:32,15.0883564,0.0001063,53.2185,284.082,99.7038,260.4074,3.365e-05,2.48e-06,0.0,0 STARLINK-3837,1 52358U 22045AD  23183.44898704  .00000248  00000-0  33650-4 0  9992,2 52358  53.2185 284.0820 0001063  99.7038 260.4074 15.08835640 67656,6917.894,95.438,540.494,539.023,0.0
52358.0,STARLINK-3837,PAYLOAD,2023-07-03 12:12:42,15.08845675,9.31e-05,53.2178,279.3244,92.5574,267.5525,0.00025821,3.825e-05,0.0,0 STARLINK-3837,1 52358U 22045AD  23184.50882569  .00003825  00000-0  25821-3 0  9996,2 52358  53.2178 279.3244 0000931  92.5574 267.5525 15.08845675 67810,6917.863,95.437,540.372,539.084,0.0
52358.0,STARLINK-3837,PAYLOAD,2023-07-04 12:03:29,15.08841779,9.21e-05,53.2168,274.8641,85.7969,274.3128,0.00011727,1.579e-05,0.0,0 STARLINK-3837,1 52358U 22045AD  23185.50242736  .00001579  00000-0  11727-3 0  9997,2 52358  53.2168 274.8641 0000921  85.7969 274.3128 15.08841779 67963,6917.875,95.437,540.377,539.103,0.0
52358.0,STARLINK-3837,PAYLOAD,2023-07-05 23:01:58,15.08843045,8.57e-05,53.2157,268.3222,79.9291,280.1798,0.0003088,4.631e-05,0.0,0 STARLINK-3837,1 52358U 22045AD  23186.95971059  .00004631  00000-0  30880-3 0  9997,2 52358  53.2157 268.3222 0000857  79.9291 280.1798 15.08843045 68186,6917.871,95.437,540.329,539.143,0.0
52358.0,STARLINK-3837,PAYLOAD,2023-07-06 22:52:46,15.08844447,9.1e-05,53.2159,263.8608,81.1134,278.9961,0.00020869,3.036e-05,0.0,0 STARLINK-3837,1 52358U 22045AD  23187.95331026  .00003036  00000-0  20869-3 0  9996,2 52358  53.2159 263.8608 0000910  81.1134 278.9961 15.08844447 68338,6917.867,95.437,540.361,539.102,0.0
52358.0,STARLINK-3837,PAYLOAD,2023-07-08 08:15:51,15.08841924,0.0001189,53.217,257.6154,121.2431,238.8678,4.8585e-05,4.86e-06,0.0,0 STARLINK-3837,1 52358U 22045AD  23189.34434614  .00000486  00000-0  48585-4 0  9990,2 52358  53.2170 257.6154 0001189 121.2431 238.8678 15.08841924 68543,6917.875,95.437,540.562,538.917,0.0
